EUTELSAT 7A             
1 28187U 04008A   25324.98938799  .00000123  00000+0  00000+0 0  9990
2 28187   5.3007  74.4965 0000764 152.4893  50.2483  1.00270396 79261
EUTELSAT 174A           
1 28924U 05052A   25325.12286380  .00000030  00000+0  00000+0 0  9995
2 28924   3.6910  79.1050 0006074 159.5516  40.0104  1.00269447 50240
EUTELSAT HOTBIRD 13B    
1 29270U 06032A   25325.09886257  .00000177  00000+0  00000+0 0  9996
2 29270   1.1221  84.5526 0003305 152.3385 252.1614  1.00273775 45223
EUTELSAT HOTBIRD 13C    
1 33459U 08065A   25325.43904043 -.00000219  00000+0  00000+0 0  9998
2 33459   2.4141  81.6504 0000857 121.5697 345.0530  1.00053772 45265
EUTELSAT 36B            
1 36101U 09065A   25325.52640095  .00000134  00000+0  00000+0 0  9995
2 36101   0.0414 351.5176 0005870 248.6087  60.6867  1.00269523 58627
EUTELSAT KA-SAT 9A      
1 37258U 10069A   25325.16143068  .00000084  00000+0  00000+0 0  9997
2 37258   0.0582 320.2217 0002431 224.2698 303.0914  1.00270614 41929
EUTELSAT 7 WEST A       
1 37816U 11051A   25325.37229196 -.00000038  00000+0  00000+0 0  9999
2 37816   0.0745  25.4485 0005961 193.8321 328.0865  1.00272768 51796
EUTELSAT 16A            
1 37836U 11057A   25325.51955425  .00000126  00000+0  00000+0 0  9991
2 37836   0.0608 354.4792 0005982 252.3509  17.0100  1.00269026  5243
